STARLINK-30182          
1 57412U 23102J   25277.97606676  .00035848  00000+0  26626-2 0  9998
2 57412  43.0046  14.9229 0001308 312.2414  47.8317 15.02430705122815
STARLINK-30191          
1 57413U 23102K   25277.91263183 -.00001688  00000+0 -51874-4 0  9997
2 57413  43.0039 346.3931 0001412 276.5937  83.4754 15.27553906123142
STARLINK-30193          
1 57414U 23102L   25277.96602425 -.00002535  00000+0 -17268-3 0  9999
2 57414  43.0036  14.8321 0001491 264.9446  95.1226 15.02532557122812
STARLINK-30208          
1 57415U 23102M   25277.96273208 -.00002545  00000+0 -17354-3 0  9990
2 57415  43.0048  14.8241 0001336 288.6604  71.4093 15.02507086122766
STARLINK-30224          
1 57416U 23102N   25277.95937245 -.00000719  00000+0 -38092-4 0  9992
2 57416  43.0056  14.7991 0003136 264.8650  95.1834 15.02549778122810
STARLINK-30043          
1 57417U 23102P   25277.95271079 -.00003139  00000+0 -21737-3 0  9995
2 57417  43.0047  14.7463 0001397 267.2752  92.7930 15.02544815122819
STARLINK-30221          
1 57418U 23102Q   25277.95603572  .00001553  00000+0  13003-3 0  9996
2 57418  43.0044  14.7717 0001472 268.8681  91.1992 15.02536888122813
2023-103B               
1 57422U 23103B   25277.23052912 -.00002995  17217-5 -42215-5 0  9995
2 57422  96.3024 333.6670 0022906 176.8509 183.2922 16.01826537126240
2023-104A               
1 57424U 23104A   25278.27632787  .00000105  00000+0  59283-5 0  9995
2 57424  97.3021 345.2564 0007553 314.4153  45.6469 15.31449679122981
2023-104B               
1 57425U 23104B   25278.20671731  .00053423  00000+0  67370-3 0  9996
2 57425  97.2959 354.8810 0005885 276.8341  83.2246 15.59419546123631
2023-104C               
1 57426U 23104C   25278.19894369  .00020233  00000+0  80323-3 0  9995
2 57426  97.2982 343.5361 0002870  67.9930 292.1613 15.25368314122882
STARLINK-30189          
1 57430U 23105A   25277.72316475  .00004408  00000+0  34106-3 0  9990
2 57430  43.0007  29.6058 0000413 251.2560 108.8238 15.02546317122058
STARLINK-30188          
1 57432U 23105C   25276.38696719  .00003051  00000+0  24088-3 0  9996
2 57432  43.0042  36.7774 0001074 258.6788 101.3933 15.02533633121865
STARLINK-30105          
1 57433U 23105D   25278.12323951  .00001545  00000+0  65705-4 0  9994
2 57433  43.0012 189.3865 0001046 284.3686  75.7049 15.27561910124536
STARLINK-30102          
1 57434U 23105E   25278.04224870  .00018229  00000+0  13643-2 0  9995
2 57434  43.0056  27.6941 0000611 294.2248  65.8530 15.02443833122095
STARLINK-30183          
1 57436U 23105G   25278.00002315  .00156681  00000+0  44648-2 0  9995
2 57436  42.9914 357.3162 0026559  16.0255  93.9089 15.34428835  5825
STARLINK-30237          
1 57437U 23105H   25278.03225693  .00002759  00000+0  21928-3 0  9998
2 57437  43.0065  27.6219 0001879 269.7938  90.2689 15.02533933122140
STARLINK-30158          
1 57438U 23105J   25278.03558747 -.00006210  00000+0 -44517-3 0  9995
2 57438  43.0049  27.6464 0001347 254.8567 105.2127 15.02523926122143
STARLINK-30159          
1 57440U 23105L   25278.02892311 -.00002188  00000+0 -14695-3 0  9999
2 57440  43.0033  27.5943 0001923 268.0631  91.9991 15.02535719121983
STARLINK-30160          
1 57441U 23105M   25278.02560146  .00003346  00000+0  26267-3 0  9991
2 57441  43.0047  27.5701 0001320 270.8707  89.1984 15.02538582121989
STARLINK-30146          
1 57442U 23105N   25277.68988660  .00000939  00000+0  84616-4 0  9996
2 57442  43.0054  29.3510 0001216 278.3230  81.7475 15.02526451122159
STARLINK-30197          
1 57443U 23105P   25277.68655404  .00001409  00000+0  11932-3 0  9997
2 57443  43.0033  29.3249 0001178 276.1855  83.8853 15.02539820122092
STARLINK-30181          
1 57444U 23105Q   25278.00562925  .00001221  00000+0  10546-3 0  9992
2 57444  43.0039  27.4227 0001397 270.0734  89.9948 15.02535444122209
STARLINK-30215          
1 57445U 23105R   25278.01003038  .00003510  00000+0  27449-3 0  9992
2 57445  43.0030  27.4552 0001293 268.5176  91.5518 15.02575683121984
STARLINK-30162          
1 57446U 23105S   25278.00260596  .00000129  00000+0  24625-4 0  9993
2 57446  43.0039  14.6615 0001150 259.3145 100.7567 15.02527541122290
STARLINK-30178          
1 57447U 23105T   25277.67656529  .00001539  00000+0  12896-3 0  9993
2 57447  43.0030  29.2517 0001269 273.4385  86.6312 15.02538356122093
STARLINK-30196          
1 57448U 23105U   25277.99896733  .00001154  00000+0  10046-3 0  9990
2 57448  43.0053  27.3685 0001199 271.5160  88.5545 15.02538583121984
STARLINK-30225          
1 57449U 23105V   25277.59678288  .00002956  00000+0  23386-3 0  9992
2 57449  43.0052  29.5131 0001774 268.7236  91.3403 15.02526004122144
STARLINK-30217          
1 57450U 23105W   25277.98595067  .00004408  00000+0  34114-3 0  9995
2 57450  43.0057  14.5884 0001355 269.1817  90.8870 15.02544580122292
STARLINK-30216          
1 57451U 23105X   25277.99231708  .00000763  00000+0  71578-4 0  9992
2 57451  43.0048  27.3370 0001521 273.2708  86.7960 15.02533266121983
YAOGAN-36 05A           
1 57452U 23106A   25273.62346631  .00004498  00000+0  18769-3 0  9993
2 57452  35.0026 249.9291 0003531 237.1900 122.8474 15.23076150121553
YAOGAN-36 05B           
1 57454U 23106C   25278.22087601  .00012150  00000+0  58053-3 0  9999
2 57454  34.9956 230.4805 0014644 340.7046  19.3111 15.18149686122110
YAOGAN-36 05C           
1 57456U 23106E   25278.21763435  .00010261  00000+0  49337-3 0  9992
2 57456  34.9930 230.3661 0006964 299.1633  60.8383 15.18031183122112
STARLINK-30165          
1 57457U 23107A   25277.82124248  .00001361  00000+0  11579-3 0  9991
2 57457  43.0025 106.1789 0001120 270.4526  89.6188 15.02544887121655
STARLINK-30140          
1 57458U 23107B   25277.95086850  .00002740  00000+0  21773-3 0  9991
2 57458  43.0026 105.4313 0001067 265.0695  95.0026 15.02549670121689
STARLINK-30185          
1 57459U 23107C   25277.88106589  .00002694  00000+0  21444-3 0  9999
2 57459  43.0030 105.7690 0001279 265.4226  94.6470 15.02536196121671
STARLINK-30077          
1 57460U 23107D   25277.87772513  .00000045  00000+0  18374-4 0  9993
2 57460  43.0028 105.7416 0001340 266.7605  93.3084 15.02536324121670
STARLINK-30229          
1 57461U 23107E   25277.95752521 -.00001346  00000+0 -84605-4 0  9997
2 57461  43.0031 105.4765 0001187 289.5231  70.5483 15.02532951121689
STARLINK-30088          
1 57462U 23107F   25277.80791825 -.00000696  00000+0 -36463-4 0  9998
2 57462  43.0032 106.0741 0001498 263.3733  96.6939 15.02537469121666
STARLINK-30091          
1 57463U 23107G   25277.93421663  .00000316  00000+0  38485-4 0  9996
2 57463  43.0028 105.3045 0001052 268.8003  91.2719 15.02535414121684
STARLINK-30116          
1 57465U 23107J   25277.86884505  .00000237  00000+0  32631-4 0  9997
2 57465  43.0031 105.6753 0001182 265.9661  94.1046 15.02538771121674
STARLINK-30092          
1 57467U 23107L   25277.79459628 -.00003572  00000+0 -24956-3 0  9992
2 57467  43.0015 105.9761 0001466 255.6865 104.3815 15.02523707121667
STARLINK-30039          
1 57468U 23107M   25277.92420266  .00002381  00000+0  19122-3 0  9998
2 57468  43.0046 105.2271 0001332 264.7505  95.3185 15.02554559121685
STARLINK-30171          
1 57469U 23107N   25277.58517192  .00000664  00000+0  64204-4 0  9990
2 57469  43.0026 106.9863 0001378 266.7477  93.3207 15.02545795121639
STARLINK-30186          
1 57470U 23107P   25277.92087502  .00004752  00000+0  36641-3 0  9992
2 57470  43.0017 105.2049 0001163 269.8536  90.2173 15.02559588121689
STARLINK-30190          
1 57471U 23107Q   25278.16671295  .00399075  00000+0  63684-2 0  9999
2 57471  42.9838  61.7891 0034836 320.0400  29.1542 15.50401588  5820
STARLINK-30204          
1 57472U 23107R   25277.91423709 -.00000169  00000+0  25682-5 0  9990
2 57472  43.0020 105.1512 0001114 262.3152  97.7564 15.02534665121682
STARLINK-30187          
1 57473U 23107S   25277.97738198  .00000703  00000+0  67083-4 0  9991
2 57473  43.0026 104.7574 0001112 272.8780  87.1935 15.02537621121694
STARLINK-30110          
1 57474U 23107T   25278.00002315  .00157185  00000+0  47631-2 0  9994
2 57474  42.9972  64.6168 0027986 304.9322 238.4792 15.32452236  5821
STARLINK-30155          
1 57475U 23107U   25277.56852465 -.00000120  00000+0  62159-5 0  9996
2 57475  43.0038 106.8580 0001908 277.0984  82.9641 15.02535580121638
STARLINK-30161          
1 57476U 23107V   25277.89758733 -.00000343  00000+0 -10353-4 0  9992
2 57476  43.0038 105.0287 0001310 268.3786  91.6907 15.02535873121686
STARLINK-30176          
1 57477U 23107W   25277.89536699  .00000149  00000+0  26136-4 0  9996
2 57477  43.0037 105.0105 0001296 266.0683  94.0011 15.02536599121688
JUPITER 3 (ECHOSTAR 24) 
1 57479U 23108A   25277.22793022  .00000000  00000+0  00000+0 0  9994
2 57479   0.0204 184.2640 0001053  10.5695 165.1634  1.00270478  8081
FENGYUN 3F              
1 57490U 23111A   25278.16634547  .00000178  00000+0  10433-3 0  9992
2 57490  98.7164 347.5398 0001502  97.4612 262.6735 14.19867475112678
GALAXY 37 (G-37)        
1 57493U 23112A   25278.21811514  .00000049  00000+0  00000+0 0  9995
2 57493   0.0198 135.2167 0002259  75.5789 114.8857  1.00271431  7989
STARLINK-30154          
1 57495U 23113A   25277.98326020  .00001572  00000+0  13136-3 0  9994
2 57495  43.0024 143.7549 0001120 275.4180  84.6534 15.02541423120076
STARLINK-30145          
1 57496U 23113B   25278.03309251  .00000759  00000+0  71229-4 0  9993
2 57496  43.0029 143.2827 0001340 268.2040  91.8648 15.02538189120133
STARLINK-30226          
1 57497U 23113C   25277.96328919  .00000945  00000+0  85038-4 0  9997
2 57497  43.0026 143.6297 0001274 270.0186  90.0510 15.02538593120132
STARLINK-30203          
1 57498U 23113D   25278.01977458 -.00000424  00000+0 -16320-4 0  9995
2 57498  43.0027 143.1859 0001093 264.5479  95.5239 15.02540689120266
